IRIDIUM 64 [+]          
1 25287U 98021C   17145.83066402  .00000168  00000-0  52776-4 0  9997
2 25287  86.3992 233.2764 0002182  93.6184 266.5262 14.34224764  1528
IRIDIUM 65 [+]          
1 25288U 98021D   17145.76724685  .00000167  00000-0  52562-4 0  9996
2 25288  86.3990 233.2068 0002477  93.0047 267.1432 14.34224546  1527
IRIDIUM 66 [+]          
1 25289U 98021E   17145.84334489  .00000184  00000-0  58532-4 0  9997
2 25289  86.3989 233.0786 0002437  95.6926 264.4548 14.34225058  1821
IRIDIUM 67 [+]          
1 25290U 98021F   17145.84969686  .00000178  00000-0  56382-4 0  9996
2 25290  86.3990 233.2119 0002371  95.2166 264.9300 14.34224755  1538
IRIDIUM 68 [+]          
1 25291U 98021G   17145.85605914  .00000171  00000-0  53869-4 0  9999
2 25291  86.3992 233.3275 0002334  93.8218 266.3244 14.34220661  1474
IRIDIUM 69 [-]          
1 25319U 98026A   17145.85478485  .00000096  00000-0  24921-4 0  9999
2 25319  86.4008 255.0923 0002520  49.2191 310.9226 14.38668156999579
IRIDIUM 71 [-]          
1 25320U 98026B   17145.92104016  .00000089  00000-0  22233-4 0  9991
2 25320  86.3995 250.9649 0004120  77.1555 283.0103 14.39083163    12
IRIDIUM 70 [+]          
1 25342U 98032A   17145.83863163  .00000169  00000-0  53152-4 0  9990
2 25342  86.3996 233.5756 0002492  95.4662  44.0138 14.34223155995619
IRIDIUM 72 [+]          
1 25343U 98032B   17145.79894041  .00000176  00000-0  55853-4 0  9993
2 25343  86.3991 233.2055 0002392  94.9172 265.2297 14.34223108995614
IRIDIUM 73 [-]          
1 25344U 98032C   17145.90719321  .00000140  00000-0  31536-4 0  9997
2 25344  86.4462 212.3467 0002902 101.8614 258.2916 14.49035139  4027
IRIDIUM 74 [S]          
1 25345U 98032D   17145.83832940  .00000185  00000-0  49920-4 0  9998
2 25345  86.4506 233.6254 0008957 103.3690  35.5839 14.42453701999232
IRIDIUM 75 [+]          
1 25346U 98032E   17145.80528672  .00000174  00000-0  54987-4 0  9997
2 25346  86.3994 233.4543 0002368  95.3846 264.7620 14.34223024996195
IRIDIUM 3 [+]           
1 25431U 98048A   17145.88767168  .00000133  00000-0  40535-4 0  9991
2 25431  86.3966 265.0103 0002431  94.2557  51.5484 14.34217439982143
IRIDIUM 76 [+]          
1 25432U 98048B   17145.90546573  .00000135  00000-0  41161-4 0  9998
2 25432  86.3963 264.7576 0002357  98.3871  41.0766 14.34218615982405
IRIDIUM 82 [-]          
1 25467U 98051A   17145.76374462  .00001057  00000-0  77479-4 0  9995
2 25467  86.4030  30.7441 0185777 110.6692 251.4563 14.89200989983518
IRIDIUM 81 [+]          
1 25468U 98051B   17145.91730588  .00000178  00000-0  51519-4 0  9998
2 25468  86.4256  31.1006 0002049  95.1805 264.9627 14.38609172979622
IRIDIUM 80 [+]          
1 25469U 98051C   17145.77972466  .00000186  00000-0  59525-4 0  9990
2 25469  86.3987  31.4590 0002147  65.1155 336.8393 14.34214648979599
IRIDIUM 77 [+]          
1 25471U 98051E   17145.79283128  .00000195  00000-0  57025-4 0  9998
2 25471  86.4247  31.0060 0002588  89.2929 313.2903 14.38642218984577
IRIDIUM 2 [-]           
1 25527U 98066A   17145.95160054  .00001113  00000-0  55177-4 0  9993
2 25527  85.5325  45.3805 0009733 157.8894 202.2767 15.16485141 14995
IRIDIUM 86 [+]          
1 25528U 98066B   17145.71745108  .00000077  00000-0  20310-4 0  9996
2 25528  86.3954 359.2014 0002354  86.4339 273.7126 14.34218938975901
IRIDIUM 84 [+]          
1 25530U 98066D   17145.74916313  .00000088  00000-0  24494-4 0  9999
2 25530  86.3955 359.3527 0002181  89.1883 270.9563 14.34219425973710
IRIDIUM 83 [+]          
1 25531U 98066E   17145.71110839  .00000091  00000-0  25601-4 0  9991
2 25531  86.3958 359.4930 0002117  87.7936 272.3502 14.34219469970843
IRIDIUM 20 [+]          
1 25577U 98074A   17145.84043853  .00000136  00000-0  41393-4 0  9991
2 25577  86.3963 264.7063 0002310  94.4883 265.6576 14.34217525150628
IRIDIUM 11 [+]          
1 25578U 98074B   17145.88142456  .00000129  00000-0  39165-4 0  9991
2 25578  86.3962 264.8911 0002258  92.3803  53.7615 14.34218204974192
IRIDIUM 14 [+]          
1 25777U 99032A   17145.82433831  .00000173  00000-0  54590-4 0  9999
2 25777  86.3993 233.2775 0002505  94.0927 266.0555 14.34224286951392
IRIDIUM 21 [+]          
1 25778U 99032B   17145.86237463  .00000174  00000-0  54904-4 0  9997
2 25778  86.3991 233.2807 0002318  98.5717 261.5742 14.34222772944832
IRIDIUM 91 [+]          
1 27372U 02005A   17145.85265519  .00000057  00000-0  13226-4 0  9997
2 27372  86.3940 296.4988 0002621 100.5358  10.8134 14.34214541808374
IRIDIUM 90 [S]          
1 27373U 02005B   17145.79175922  .00000106  00000-0  25739-4 0  9996
2 27373  86.4469 359.4431 0002362  89.4469 270.7002 14.42951501808122
IRIDIUM 94 [+]          
1 27374U 02005C   17145.96499819  .00000130  00000-0  39499-4 0  9995
2 27374  86.3964 264.9856 0002888 105.3036  14.0590 14.34218878812731
IRIDIUM 95 [+]          
1 27375U 02005D   17145.52030473  .00000017  00000-0 -11128-5 0  9990
2 27375  86.3927 296.6630 0002212 112.5412 247.6018 14.34237711807664
IRIDIUM 96 [+]          
1 27376U 02005E   17145.77739326 -.00000022  00000-0 -14990-4 0  9997
2 27376  86.3965 328.5817 0001725 122.2095 237.9269 14.34217666213569
IRIDIUM 97 [+]          
1 27450U 02031A   17145.60615272 -.00000006  00000-0 -91948-5 0  9995
2 27450  86.3933 328.3378 0001914  83.3028 276.8386 14.34217600786947
IRIDIUM 98 [+]          
1 27451U 02031B   17145.79095966  .00000176  00000-0  55717-4 0  9997
2 27451  86.3981  31.5544 0002610  77.6000 349.5096 14.34214930788074
